HAIYANG-1B              
1 31113U 07010A   24231.90194601  .00000472  00000+0  19628-3 0  9990
2 31113  98.2980 231.0754 0014192  25.3322 334.8554 14.30658433905208
COSMO-SKYMED 1          
1 31598U 07023A   24232.12316496  .00001681  00000+0  21777-3 0  9995
2 31598  97.8889  54.3492 0001105  86.2189 273.9150 14.82137625930520
TERRASAR-X              
1 31698U 07026A   24231.48508626  .00005242  00000+0  25260-3 0  9993
2 31698  97.4466 237.7554 0001781  86.3026 273.8412 15.19158469951854
WORLDVIEW-1 (WV-1)      
1 32060U 07041A   24232.22705861  .00019089  00000+0  76346-3 0  9992
2 32060  97.3820 350.6119 0004087  92.6440 267.5266 15.25130262941400
YAOGAN-3                
1 32289U 07055A   24232.19404881  .00005462  00000+0  63472-3 0  9990
2 32289  97.8847 256.9089 0001952  99.5412 260.6023 14.85752431906683
COSMO-SKYMED 2          
1 32376U 07059A   24232.15696715  .00002167  00000+0  27872-3 0  9999
2 32376  97.8884  54.3778 0001281  85.9250 274.2110 14.82155349903272
RADARSAT-2              
1 32382U 07061A   24231.86567721  .00000446  00000+0  18973-3 0  9990
2 32382  98.5795 237.3341 0001213  92.6099 267.5222 14.29988124870580
CARTOSAT-2A             
1 32783U 08021A   24232.10601021  .00003202  00000+0  44306-3 0  9994
2 32783  97.8614 289.1193 0012964 114.7824 245.4737 14.78669479880304
HUANJING 1A (HJ-1A)     
1 33320U 08041A   24232.16968654  .00004597  00000+0  60666-3 0  9993
2 33320  97.6322 236.0903 0020911 161.0684 199.1311 14.80361614859678
HUANJING 1B (HJ-1B)     
1 33321U 08041B   24232.23030403  .00003087  00000+0  40446-3 0  9991
2 33321  97.6269 240.6706 0037488 207.6365 152.2856 14.80553068859705
GEOEYE 1                
1 33331U 08042A   24232.16099727  .00002044  00000+0  39226-3 0  9995
2 33331  98.1270 303.7230 0006156 336.7645  23.3278 14.64763806852535
THEOS                   
1 33396U 08049A   24232.15281718  .00000265  00000+0  14507-3 0  9993
2 33396  98.6533 296.6672 0001293  89.6466 270.4859 14.20021274823317
COSMO-SKYMED 3          
1 33412U 08054A   24232.14863022  .00009163  00000+0  76960-3 0  9998
2 33412  97.8720  69.4147 0015586   7.0195 353.1242 14.98456395856717
YAOGAN-4                
1 33446U 08061A   24232.17208753  .00003994  00000+0  53150-3 0  9992
2 33446  97.8791 162.8689 0016646  82.2250 278.0851 14.80158911846877
GOSAT (IBUKI)           
1 33492U 09002A   24231.91301314  .00002493  00000+0  44759-3 0  9995
2 33492  98.0433 342.2632 0001207  83.1479 276.9863 14.67574770833591
YAOGAN-6                
1 34839U 09021A   24232.06992631  .00041042  00000+0  68750-3 0  9997
2 34839  97.1753 199.2357 0012619 312.4583  47.5602 15.51657109853192
DEIMOS-1                
1 35681U 09041A   24232.14911982  .00002025  00000+0  31869-3 0  9993
2 35681  97.6826  50.7105 0001916 136.7738 223.3622 14.73514139808580
DUBAISAT-1              
1 35682U 09041B   24231.96220226  .00004193  00000+0  67563-3 0  9995
2 35682  97.9147   6.4682 0012063  56.1397 304.0957 14.71947246806874
OCEANSAT-2              
1 35931U 09051A   24232.13107947  .00000353  00000+0  26769-3 0  9994
2 35931  98.2614 274.8065 0015676 324.5365  35.4758 13.99494191786023
WORLDVIEW-2 (WV-2)      
1 35946U 09055A   24232.15106250  .00000602  00000+0  21828-3 0  9990
2 35946  98.4759 303.9367 0005022  57.7629 302.4044 14.36868041779930
SMOS                    
1 36036U 09059A   24231.53938117  .00001169  00000+0  38667-3 0  9999
2 36036  98.4438  57.5764 0001214  94.7249 265.4078 14.39770185777528
YAOGAN-7                
1 36110U 09069A   24232.17527020  .00001818  00000+0  26767-3 0  9990
2 36110  98.0960 108.1839 0026073  29.1120 331.1537 14.76418269791185
TANDEM-X                
1 36605U 10030A   24231.48508566  .00006197  00000+0  29798-3 0  9998
2 36605  97.4474 237.7561 0001866  95.4274 264.7173 15.19159763785276
CARTOSAT-2B             
1 36795U 10035A   24232.14244257  .00002848  00000+0  39457-3 0  9993
2 36795  97.8553 288.7474 0012141 189.5785 170.5196 14.78715859761357
YAOGAN-10               
1 36834U 10038A   24232.21539561  .00002402  00000+0  30169-3 0  9990
2 36834  97.9474 248.9979 0001748  96.8973 330.9593 14.83059467758342
COSMO-SKYMED 4          
1 37216U 10060A   24232.10209001  .00002991  00000+0  38227-3 0  9997
2 37216  97.8883  54.3290 0001645  79.5841 280.5557 14.82143088745813
RESOURCESAT-2           
1 37387U 11015A   24232.15091636  .00000535  00000+0  26289-3 0  9992
2 37387  98.5728 296.1463 0003240 302.6886  57.3979 14.21703137691939
HAIYANG-2A              
1 37781U 11043A   24231.96499527  .00000041  00000+0  83560-4 0  9998
2 37781  99.3284 234.4325 0000299  76.3366 283.7819 13.78794657654973
RASAT                   
1 37791U 11044D   24232.22282132  .00002178  00000+0  39999-3 0  9991
2 37791  98.0784 322.7302 0022052 142.2699 239.6946 14.66546302695385
SRMSAT                  
1 37841U 11058D   24231.91192257  .00000867  00000+0  32944-3 0  9991
2 37841  19.9712 137.3903 0011812  64.7926  10.2630 14.11173359663436
YAOGAN-13               
1 37941U 11072A   24232.21662105  .00053921  00000+0  99841-3 0  9994
2 37941  97.7214 220.0162 0004866 118.8643 241.3096 15.48829668706212
PLEIADES 1A             
1 38012U 11076F   24232.17964869  .00001465  00000+0  32498-3 0  9996
2 38012  98.2005 305.8457 0001581  88.2828 325.6440 14.58557157674776
ZIYUAN 1-02C (ZY 1-02C) 
1 38038U 11079A   24232.16779197  .00001551  00000+0  53774-3 0  9990
2 38038  98.4936 299.7406 0007479 134.2202 305.6219 14.36989074663418
ZIYUAN 3-1 (ZY 3-1)     
1 38046U 12001A   24232.16277413  .00027997  00000+0  83858-3 0  9997
2 38046  97.2415 292.8344 0003135 265.4345  94.6540 15.34474454700583
ARIRANG-3 (KOMPSAT-3)   
1 38338U 12025B   24232.13533835  .00002236  00000+0  44518-3 0  9996
2 38338  98.2647 178.4924 0011261  48.5639 311.6528 14.63004605653946
KANOPUS-V 1             
1 38707U 12039A   24231.83709559  .00070749  00000+0  97223-3 0  9990
2 38707  97.4939 173.0567 0006152 119.9801 240.2065 15.57050793670936
EXACTVIEW-1 (ADS-1B)    
1 38709U 12039C   24232.18070022  .00000513  00000+0  24099-3 0  9990
2 38709  98.9515 325.2269 0009982 296.1626  63.8525 14.24518655627729
SPOT 6                  
1 38755U 12047A   24232.18469657  .00001416  00000+0  31407-3 0  9990
2 38755  98.2182 298.1536 0001050 103.0236 257.1080 14.58592709635855
PLEIADES 1B             
1 39019U 12068A   24232.20361497  .00001427  00000+0  31693-3 0  9992
2 39019  98.1926 305.8345 0001394  92.1226 268.0133 14.58521554623628
GOKTURK 2               
1 39030U 12073A   24232.09158761  .00001772  00000+0  27631-3 0  9996
2 39030  97.7455  90.2234 0001463  63.2194 296.9165 14.74089218626201
LANDSAT 8               
1 39084U 13008A   24232.17532377  .00001370  00000+0  31418-3 0  9994
2 39084  98.2250 301.0121 0001549  94.9277 265.2098 14.57099301612580
SARAL                   
1 39086U 13009A   24232.15531677  .00000464  00000+0  18755-3 0  9999
2 39086  98.5526  56.4032 0003061  95.3506 264.8027 14.32474891600098
GAOFEN-1                
1 39150U 13018A   24232.15503731  .00002493  00000+0  36417-3 0  9990
2 39150  97.9858 303.8406 0018731 253.1113 106.8042 14.76513308609853
VNREDSAT 1              
1 39160U 13021B   24232.15062239  .00002524  00000+0  49256-3 0  9998
2 39160  97.9929 297.1096 0001594  94.5614 265.5771 14.63801076602667
ARIRANG-5 (KOMPSAT-5)   
1 39227U 13042A   24232.15333716  .00004477  00000+0  32329-3 0  9998
2 39227  97.6194  57.1732 0001362 179.5435 180.5792 15.04591077603620
SKYSAT-A                
1 39418U 13066C   24231.70251887  .00008759  00000+0  60285-3 0  9993
2 39418  97.4830 290.1107 0026414  91.9378 268.4875 15.05828583587759
DUBAISAT-2              
1 39419U 13066D   24232.17244931  .00008676  00000+0  67773-3 0  9995
2 39419  97.4159 234.2681 0015375 141.4579 218.7747 15.01240666585972
GPM-CORE                
1 39574U 14009C   24231.92842754  .00025232  00000+0  53927-3 0  9997
2 39574  64.9849  22.9880 0012715 263.1582  96.8113 15.44709833594743
SENTINEL-1A             
1 39634U 14016A   24232.16771550  .00000756  00000+0  17001-3 0  9991
2 39634  98.1817 238.3541 0001390  91.1898 268.9461 14.59197917552771
KAZEOSAT 1              
1 39731U 14024A   24232.21757287  .00000839  00000+0  26879-3 0  9990
2 39731  98.3919 307.6258 0001116  88.9112 271.2205 14.42037747542484
ALOS-2                  
1 39766U 14029A   24232.21164245  .00006198  00000+0  83589-3 0  9994
2 39766  97.9234 327.9522 0001556  99.5649 260.5738 14.79484946552993
KAZEOSAT 2              
1 40010U 14033A   24232.08800560  .00002041  00000+0  25899-3 0  9998
2 40010  97.6120  94.1727 0012022  10.0693 350.0760 14.82672567549993
HODOYOSHI-4             
1 40011U 14033B   24232.12655229  .00004322  00000+0  51445-3 0  9994
2 40011  97.5764  78.7119 0024932 356.1875   3.9146 14.84628640549705
DEIMOS-2                
1 40013U 14033D   24232.15437307  .00005530  00000+0  58909-3 0  9998
2 40013  97.6718 116.9215 0002251  71.3072 288.8390 14.89285444551135
HODOYOSHI-3             
1 40015U 14033F   24232.11257648  .00004789  00000+0  60830-3 0  9995
2 40015  97.5979  54.6580 0035717  30.8985 329.4320 14.81648542548713
SPOT 7                  
1 40053U 14034A   24232.20247146  .00001832  00000+0  39517-3 0  9994
2 40053  98.1540 297.9250 0001528 104.5031 255.6338 14.59549651539801
SKYSAT-B                
1 40072U 14037D   24231.80806534  .00003881  00000+0  46808-3 0  9992
2 40072  98.3280 146.3402 0004541 284.2795  75.7913 14.84432946546817
WORLDVIEW-3 (WV-3)      
1 40115U 14048A   24231.85469607  .00003596  00000+0  42374-3 0  9990
2 40115  97.8649 304.3267 0000802  96.8809 263.2497 14.85397670542904
GAOFEN-2                
1 40118U 14049A   24232.13066500  .00003478  00000+0  46130-3 0  9994
2 40118  98.1072 282.6223 0007408 208.6585 151.4220 14.80487224540544
